start=new Date('2021-10-20T00:00:00.000Z').valueOf();
sats=[{"MEAN_ELEMENT_THEORY":"SGP4","CLASSIFICATION_TYPE":"U","RA_OF_ASC_NODE":"112.4255","SITE":"AFETR","APOAPSIS":"548.669","OBJECT_NAME":"STARLINK-2672","TIME_SYSTEM":"UTC","SEMIMAJOR_AXIS":"6925.351","MEAN_MOTION_DOT":"0.00001050","RCS_SIZE":"LARGE","PERIOD":"95.592","TLE_LINE1":"1 48650U 21044N   21292.87730747  .00001050  00000-0  89427-4 0  9993","INCLINATION":"53.0548","FILE":"3172644","MEAN_MOTION":"15.06399044","EPHEMERIS_TYPE":"0","LAUNCH_DATE":"2021-05-26","GP_ID":"187632376","NORAD_CAT_ID":"48650","PERIAPSIS":"545.764","REV_AT_EPOCH":"2227","CENTER_NAME":"EARTH","ARG_OF_PERICENTER":"77.1103","ELEMENT_SET_NO":"999","ECCENTRICITY":"0.00020980","BSTAR":"0.00008942700000","DECAY_DATE":null,"TLE_LINE2":"2 48650  53.0548 112.4255 0002098  77.1103 283.0120 15.06399044 22278","REF_FRAME":"TEME","MEAN_MOTION_DDOT":"0.0000000000000","MEAN_ANOMALY":"283.0120","COUNTRY_CODE":"US","OBJECT_ID":"2021-044N","EPOCH":"2021-10-19T21:03:19.365408","OBJECT_TYPE":"PAYLOAD"},{"EPOCH":"2021-10-19T17:46:53.732352","OBJECT_TYPE":"PAYLOAD","COUNTRY_CODE":"US","OBJECT_ID":"2021-044P","MEAN_MOTION_DDOT":"0.0000000000000","MEAN_ANOMALY":"276.2072","REF_FRAME":"TEME","ELEMENT_SET_NO":"999","ECCENTRICITY":"0.00020070","BSTAR":"0.00005648900000","DECAY_DATE":null,"TLE_LINE2":"2 48651  53.0537 113.0331 0002007  83.9146 276.2072 15.06402209 22257","ARG_OF_PERICENTER":"83.9146","REV_AT_EPOCH":"2225","CENTER_NAME":"EARTH","PERIAPSIS":"545.817","GP_ID":"187632158","NORAD_CAT_ID":"48651","EPHEMERIS_TYPE":"0","LAUNCH_DATE":"2021-05-26","INCLINATION":"53.0537","MEAN_MOTION":"15.06402209","FILE":"3172644","TLE_LINE1":"1 48651U 21044P   21292.74089968  .00000560  00000-0  56489-4 0  9999","SEMIMAJOR_AXIS":"6925.342","MEAN_MOTION_DOT":"0.00000560","RCS_SIZE":"LARGE","PERIOD":"95.592","OBJECT_NAME":"STARLINK-2731","TIME_SYSTEM":"UTC","APOAPSIS":"548.597","MEAN_ELEMENT_THEORY":"SGP4","CLASSIFICATION_TYPE":"U","RA_OF_ASC_NODE":"113.0331","SITE":"AFETR"},{"REV_AT_EPOCH":"2225","CENTER_NAME":"EARTH","PERIAPSIS":"546.100","ELEMENT_SET_NO":"999","BSTAR":"-0.00004799400000","ECCENTRICITY":"0.00015970","DECAY_DATE":null,"TLE_LINE2":"2 48652  53.0549 113.0482 0001597  78.1288 281.9880 15.06402600 22259","ARG_OF_PERICENTER":"78.1288","MEAN_ANOMALY":"281.9880","MEAN_MOTION_DDOT":"0.0000000000000","REF_FRAME":"TEME","EPOCH":"2021-10-19T17:41:36.634848","OBJECT_TYPE":"PAYLOAD","COUNTRY_CODE":"US","OBJECT_ID":"2021-044Q","APOAPSIS":"548.312","MEAN_ELEMENT_THEORY":"SGP4","RA_OF_ASC_NODE":"113.0482","CLASSIFICATION_TYPE":"U","SITE":"AFETR","SEMIMAJOR_AXIS":"6925.341","RCS_SIZE":"LARGE","MEAN_MOTION_DOT":"-0.00000996","PERIOD":"95.592","OBJECT_NAME":"STARLINK-2727","TIME_SYSTEM":"UTC","INCLINATION":"53.0549","MEAN_MOTION":"15.06402600","FILE":"3172644","TLE_LINE1":"1 48652U 21044Q   21292.73722957 -.00000996  00000-0 -47994-4 0  9997","GP_ID":"187631928","NORAD_CAT_ID":"48652","EPHEMERIS_TYPE":"0","LAUNCH_DATE":"2021-05-26"},{"MEAN_MOTION_DDOT":"0.0000000000000","MEAN_ANOMALY":"283.9607","REF_FRAME":"TEME","EPOCH":"2021-10-19T20:47:21.743232","OBJECT_TYPE":"PAYLOAD","COUNTRY_CODE":"US","OBJECT_ID":"2021-044R","REV_AT_EPOCH":"2227","CENTER_NAME":"EARTH","PERIAPSIS":"545.897","ECCENTRICITY":"0.00018690","BSTAR":"0.00008156200000","ELEMENT_SET_NO":"999","TLE_LINE2":"2 48653  53.0547 112.4721 0001869  76.1589 283.9607 15.06407296 22278","DECAY_DATE":null,"ARG_OF_PERICENTER":"76.1589","MEAN_MOTION":"15.06407296","FILE":"3172644","INCLINATION":"53.0547","TLE_LINE1":"1 48653U 21044R   21292.86622388  .00000934  00000-0  81562-4 0  9998","GP_ID":"187632490","NORAD_CAT_ID":"48653","LAUNCH_DATE":"2021-05-26","EPHEMERIS_TYPE":"0","APOAPSIS":"548.486","MEAN_ELEMENT_THEORY":"SGP4","SITE":"AFETR","RA_OF_ASC_NODE":"112.4721","CLASSIFICATION_TYPE":"U","RCS_SIZE":"LARGE","MEAN_MOTION_DOT":"0.00000934","SEMIMAJOR_AXIS":"6925.326","PERIOD":"95.592","OBJECT_NAME":"STARLINK-2720","TIME_SYSTEM":"UTC"},{"COUNTRY_CODE":"US","OBJECT_ID":"2021-044S","EPOCH":"2021-10-19T20:42:05.278176","OBJECT_TYPE":"PAYLOAD","REF_FRAME":"TEME","MEAN_MOTION_DDOT":"0.0000000000000","MEAN_ANOMALY":"280.7855","ARG_OF_PERICENTER":"79.3292","ELEMENT_SET_NO":"999","BSTAR":"0.00005843900000","ECCENTRICITY":"0.00014050","DECAY_DATE":null,"TLE_LINE2":"2 48654  53.0560 112.5003 0001405  79.3292 280.7855 15.06372057 22276","PERIAPSIS":"546.326","REV_AT_EPOCH":"2227","CENTER_NAME":"EARTH","EPHEMERIS_TYPE":"0","LAUNCH_DATE":"2021-05-26","GP_ID":"187632035","NORAD_CAT_ID":"48654","TLE_LINE1":"1 48654U 21044S   21292.86256109  .00000589  00000-0  58439-4 0  9996","INCLINATION":"53.0560","FILE":"3172644","MEAN_MOTION":"15.06372057","OBJECT_NAME":"STARLINK-2651","TIME_SYSTEM":"UTC","SEMIMAJOR_AXIS":"6925.434","RCS_SIZE":"LARGE","MEAN_MOTION_DOT":"0.00000589","PERIOD":"95.594","MEAN_ELEMENT_THEORY":"SGP4","CLASSIFICATION_TYPE":"U","RA_OF_ASC_NODE":"112.5003","SITE":"AFETR","APOAPSIS":"548.272"},{"OBJECT_ID":"2021-044T","COUNTRY_CODE":"US","OBJECT_TYPE":"PAYLOAD","EPOCH":"2021-10-19T19:01:12.819936","REF_FRAME":"TEME","MEAN_MOTION_DDOT":"0.0000000000000","MEAN_ANOMALY":"272.2328","ARG_OF_PERICENTER":"87.8864","TLE_LINE2":"2 48655  53.0551 112.8072 0001769  87.8864 272.2328 15.06403998 22267","DECAY_DATE":null,"BSTAR":"0.00009539700000","ECCENTRICITY":"0.00017690","ELEMENT_SET_NO":"999","PERIAPSIS":"545.976","CENTER_NAME":"EARTH","REV_AT_EPOCH":"2226","LAUNCH_DATE":"2021-05-26","EPHEMERIS_TYPE":"0","GP_ID":"187631817","NORAD_CAT_ID":"48655","TLE_LINE1":"1 48655U 21044T   21292.79250949  .00001140  00000-0  95397-4 0  9993","FILE":"3172644","MEAN_MOTION":"15.06403998","INCLINATION":"53.0551","TIME_SYSTEM":"UTC","OBJECT_NAME":"STARLINK-2657","PERIOD":"95.592","MEAN_MOTION_DOT":"0.00001140","RCS_SIZE":"LARGE","SEMIMAJOR_AXIS":"6925.336","SITE":"AFETR","CLASSIFICATION_TYPE":"U","RA_OF_ASC_NODE":"112.8072","MEAN_ELEMENT_THEORY":"SGP4","APOAPSIS":"548.426"},{"PERIAPSIS":"545.911","REV_AT_EPOCH":"2227","CENTER_NAME":"EARTH","ARG_OF_PERICENTER":"81.0563","BSTAR":"0.00007966200000","ECCENTRICITY":"0.00018620","ELEMENT_SET_NO":"999","TLE_LINE2":"2 48656  53.0548 112.5224 0001862  81.0563 279.0636 15.06404148 22272","DECAY_DATE":null,"REF_FRAME":"TEME","MEAN_MOTION_DDOT":"0.0000000000000","MEAN_ANOMALY":"279.0636","COUNTRY_CODE":"US","OBJECT_ID":"2021-044U","EPOCH":"2021-10-19T20:31:26.465088","OBJECT_TYPE":"PAYLOAD","MEAN_ELEMENT_THEORY":"SGP4","SITE":"AFETR","RA_OF_ASC_NODE":"112.5224","CLASSIFICATION_TYPE":"U","APOAPSIS":"548.490","OBJECT_NAME":"STARLINK-2701","TIME_SYSTEM":"UTC","RCS_SIZE":"LARGE","MEAN_MOTION_DOT":"0.00000905","SEMIMAJOR_AXIS":"6925.336","PERIOD":"95.592","TLE_LINE1":"1 48656U 21044U   21292.85516742  .00000905  00000-0  79662-4 0  9992","MEAN_MOTION":"15.06404148","FILE":"3172644","INCLINATION":"53.0548","LAUNCH_DATE":"2021-05-26","EPHEMERIS_TYPE":"0","GP_ID":"187632271","NORAD_CAT_ID":"48656"},{"CENTER_NAME":"EARTH","REV_AT_EPOCH":"2227","PERIAPSIS":"545.844","TLE_LINE2":"2 48657  53.0550 112.5396 0001973  66.0503 294.0692 15.06401033 22275","DECAY_DATE":null,"BSTAR":"-0.00003662600000","ECCENTRICITY":"0.00019730","ELEMENT_SET_NO":"999","ARG_OF_PERICENTER":"66.0503","MEAN_MOTION_DDOT":"0.0000000000000","MEAN_ANOMALY":"294.0692","REF_FRAME":"TEME","OBJECT_TYPE":"PAYLOAD","EPOCH":"2021-10-19T20:26:08.410272","OBJECT_ID":"2021-044V","COUNTRY_CODE":"US","APOAPSIS":"548.577","SITE":"AFETR","RA_OF_ASC_NODE":"112.5396","CLASSIFICATION_TYPE":"U","MEAN_ELEMENT_THEORY":"SGP4","PERIOD":"95.592","RCS_SIZE":"LARGE","MEAN_MOTION_DOT":"-0.00000827","SEMIMAJOR_AXIS":"6925.345","TIME_SYSTEM":"UTC","OBJECT_NAME":"STARLINK-2734","FILE":"3172644","MEAN_MOTION":"15.06401033","INCLINATION":"53.0550","TLE_LINE1":"1 48657U 21044V   21292.85148623 -.00000827  00000-0 -36626-4 0  9990","NORAD_CAT_ID":"48657","GP_ID":"187632594","LAUNCH_DATE":"2021-05-26","EPHEMERIS_TYPE":"0"},{"EPHEMERIS_TYPE":"0","LAUNCH_DATE":"2021-05-26","GP_ID":"187632377","NORAD_CAT_ID":"48658","TLE_LINE1":"1 48658U 21044W   21292.91414799 -.00000831  00000-0 -36914-4 0  9993","INCLINATION":"53.0560","MEAN_MOTION":"15.06400069","FILE":"3172644","TIME_SYSTEM":"UTC","OBJECT_NAME":"STARLINK-2647","PERIOD":"95.592","SEMIMAJOR_AXIS":"6925.348","MEAN_MOTION_DOT":"-0.00000831","RCS_SIZE":"LARGE","CLASSIFICATION_TYPE":"U","RA_OF_ASC_NODE":"112.2691","SITE":"AFETR","MEAN_ELEMENT_THEORY":"SGP4","APOAPSIS":"548.261","OBJECT_ID":"2021-044W","COUNTRY_CODE":"US","OBJECT_TYPE":"PAYLOAD","EPOCH":"2021-10-19T21:56:22.386336","REF_FRAME":"TEME","MEAN_ANOMALY":"266.4251","MEAN_MOTION_DDOT":"0.0000000000000","ARG_OF_PERICENTER":"93.6911","DECAY_DATE":null,"TLE_LINE2":"2 48658  53.0560 112.2691 0001513  93.6911 266.4251 15.06400069 22284","ELEMENT_SET_NO":"999","BSTAR":"-0.00003691400000","ECCENTRICITY":"0.00015130","PERIAPSIS":"546.166","CENTER_NAME":"EARTH","REV_AT_EPOCH":"2228"},{"APOAPSIS":"548.591","MEAN_ELEMENT_THEORY":"SGP4","SITE":"AFETR","CLASSIFICATION_TYPE":"U","RA_OF_ASC_NODE":"112.2791","MEAN_MOTION_DOT":"-0.00000909","RCS_SIZE":"LARGE","SEMIMAJOR_AXIS":"6925.368","PERIOD":"95.593","OBJECT_NAME":"STARLINK-2717","TIME_SYSTEM":"UTC","FILE":"3172644","MEAN_MOTION":"15.06393703","INCLINATION":"53.0551","TLE_LINE1":"1 48659U 21044X   21292.91045609 -.00000909  00000-0 -42144-4 0  9992","NORAD_CAT_ID":"48659","GP_ID":"187632159","LAUNCH_DATE":"2021-05-26","EPHEMERIS_TYPE":"0","REV_AT_EPOCH":"2228","CENTER_NAME":"EARTH","PERIAPSIS":"545.875","BSTAR":"-0.00004214400000","ECCENTRICITY":"0.00019610","ELEMENT_SET_NO":"999","TLE_LINE2":"2 48659  53.0551 112.2791 0001961  78.3154 281.8055 15.06393703 22281","DECAY_DATE":null,"ARG_OF_PERICENTER":"78.3154","MEAN_MOTION_DDOT":"0.0000000000000","MEAN_ANOMALY":"281.8055","REF_FRAME":"TEME","EPOCH":"2021-10-19T21:51:03.406176","OBJECT_TYPE":"PAYLOAD","COUNTRY_CODE":"US","OBJECT_ID":"2021-044X"}];
